{
  "type": "FeatureCollection",
  "features": [
    {
      "type": "Feature",
      "properties": {
        "norad_id": 57400,
        "name": "TIANMU-1 08",
        "group": "weather",
        "lat": 73.70866715868826,
        "lon": 17.757633836956543,
        "alt_km": 469.42831697925703,
        "timestamp": "2025-12-20T05:41:49.661478+00:00",
        "meta_object_name": "TIANMU-1 08",
        "meta_object_id": "2023-101B",
        "meta_epoch": "2025-12-19T23:04:57.670176",
        "meta_mean_motion": 15.2815057,
        "meta_eccentricity": 0.00072823,
        "meta_inclination": 97.2857,
        "meta_ra_of_asc_node": 43.4494,
        "meta_arg_of_pericenter": 63.7283,
        "meta_mean_anomaly": 296.4704,
        "meta_ephemeris_type": 0,
        "meta_classification_type": "U",
        "meta_norad_cat_id": 57400,
        "meta_element_set_no": 999,
        "meta_rev_at_epoch": 13425,
        "meta_bstar": 0.00019020814,
        "meta_mean_motion_dot": 5.15e-05,
        "meta_mean_motion_ddot": 0,
        "tle_line1": "1 57400U 23101B   25353.96177859  .00005150  00000+0  19021-3 0  9999",
        "tle_line2": "2 57400  97.2857  43.4494 0007282  63.7283 296.4704 15.28150570134253"
      },
      "geometry": {
        "type": "Point",
        "coordinates": [
          17.757633836956543,
          73.70866715868826
        ]
      }
    },
    {
      "type": "Feature",
      "properties": {
        "norad_id": 57401,
        "name": "TIANMU-1 09",
        "group": "weather",
        "lat": 30.658623317225572,
        "lon": -132.42467865226405,
        "alt_km": 479.3518573956344,
        "timestamp": "2025-12-20T05:41:49.661488+00:00",
        "meta_object_name": "TIANMU-1 09",
        "meta_object_id": "2023-101C",
        "meta_epoch": "2025-12-19T21:11:25.774944",
        "meta_mean_motion": 15.28182546,
        "meta_eccentricity": 0.00065452,
        "meta_inclination": 97.2813,
        "meta_ra_of_asc_node": 42.8821,
        "meta_arg_of_pericenter": 64.5171,
        "meta_mean_anomaly": 295.6745,
        "meta_ephemeris_type": 0,
        "meta_classification_type": "U",
        "meta_norad_cat_id": 57401,
        "meta_element_set_no": 999,
        "meta_rev_at_epoch": 13424,
        "meta_bstar": 0.00019756528,
        "meta_mean_motion_dot": 5.356e-05,
        "meta_mean_motion_ddot": 0,
        "tle_line1": "1 57401U 23101C   25353.88293721  .00005356  00000+0  19757-3 0  9992",
        "tle_line2": "2 57401  97.2813  42.8821 0006545  64.5171 295.6745 15.28182546134242"
      },
      "geometry": {
        "type": "Point",
        "coordinates": [
          -132.42467865226405,
          30.658623317225572
        ]
      }
    },
    {
      "type": "Feature",
      "properties": {
        "norad_id": 57402,
        "name": "TIANMU-1 10",
        "group": "weather",
        "lat": -39.225362248360206,
        "lon": 50.08410511123792,
        "alt_km": 488.8974654940712,
        "timestamp": "2025-12-20T05:41:49.661498+00:00",
        "meta_object_name": "TIANMU-1 10",
        "meta_object_id": "2023-101D",
        "meta_epoch": "2025-12-19T22:00:45.062208",
        "meta_mean_motion": 15.28174323,
        "meta_eccentricity": 0.00082626,
        "meta_inclination": 97.2894,
        "meta_ra_of_asc_node": 43.7729,
        "meta_arg_of_pericenter": 62.6782,
        "meta_mean_anomaly": 297.5298,
        "meta_ephemeris_type": 0,
        "meta_classification_type": "U",
        "meta_norad_cat_id": 57402,
        "meta_element_set_no": 999,
        "meta_rev_at_epoch": 13424,
        "meta_bstar": 0.00018720132,
        "meta_mean_motion_dot": 5.072e-05,
        "meta_mean_motion_ddot": 0,
        "tle_line1": "1 57402U 23101D   25353.91718822  .00005072  00000+0  18720-3 0  9995",
        "tle_line2": "2 57402  97.2894  43.7729 0008262  62.6782 297.5298 15.28174323134242"
      },
      "geometry": {
        "type": "Point",
        "coordinates": [
          50.08410511123792,
          -39.225362248360206
        ]
      }
    },
    {
      "type": "Feature",
      "properties": {
        "norad_id": 57490,
        "name": "FENGYUN 3F",
        "group": "weather",
        "lat": -3.8497307694413987,
        "lon": -118.18137290215556,
        "alt_km": 828.9393381203054,
        "timestamp": "2025-12-20T05:41:49.661509+00:00",
        "meta_object_name": "FENGYUN 3F",
        "meta_object_id": "2023-111A",
        "meta_epoch": "2025-12-19T22:04:10.313184",
        "meta_mean_motion": 14.19895297,
        "meta_eccentricity": 7.439e-05,
        "meta_inclination": 98.7075,
        "meta_ra_of_asc_node": 62.0969,
        "meta_arg_of_pericenter": 113.2374,
        "meta_mean_anomaly": 246.8881,
        "meta_ephemeris_type": 0,
        "meta_classification_type": "U",
        "meta_norad_cat_id": 57490,
        "meta_element_set_no": 999,
        "meta_rev_at_epoch": 12342,
        "meta_bstar": 4.5920811e-05,
        "meta_mean_motion_dot": 5.4e-07,
        "meta_mean_motion_ddot": 0,
        "tle_line1": "1 57490U 23111A   25353.91956381  .00000054  00000+0  45921-4 0  9996",
        "tle_line2": "2 57490  98.7075  62.0969 0000743 113.2374 246.8881 14.19895297123424"
      },
      "geometry": {
        "type": "Point",
        "coordinates": [
          -118.18137290215556,
          -3.8497307694413987
        ]
      }
    },
    {
      "type": "Feature",
      "properties": {
        "norad_id": 58584,
        "name": "ARKTIKA-M 2",
        "group": "weather",
        "lat": 22.36960752455975,
        "lon": -17.936510807854255,
        "alt_km": 12917.713141563207,
        "timestamp": "2025-12-20T05:41:49.661521+00:00",
        "meta_object_name": "ARKTIKA-M 2",
        "meta_object_id": "2023-198A",
        "meta_epoch": "2025-12-18T19:26:38.867712",
        "meta_mean_motion": 2.00602974,
        "meta_eccentricity": 0.68653183,
        "meta_inclination": 63.225,
        "meta_ra_of_asc_node": 174.2298,
        "meta_arg_of_pericenter": 268.0801,
        "meta_mean_anomaly": 18.8403,
        "meta_ephemeris_type": 0,
        "meta_classification_type": "U",
        "meta_norad_cat_id": 58584,
        "meta_element_set_no": 999,
        "meta_rev_at_epoch": 1470,
        "meta_bstar": 0,
        "meta_mean_motion_dot": 2e-06,
        "meta_mean_motion_ddot": 0,
        "tle_line1": "1 58584U 23198A   25352.81017208  .00000200  00000+0  00000+0 0  9997",
        "tle_line2": "2 58584  63.2250 174.2298 6865318 268.0801  18.8403  2.00602974 14701"
      },
      "geometry": {
        "type": "Point",
        "coordinates": [
          -17.936510807854255,
          22.36960752455975
        ]
      }
    },
    {
      "type": "Feature",
      "properties": {
        "norad_id": 58645,
        "name": "TIANMU-1 11",
        "group": "weather",
        "lat": 45.31147211580051,
        "lon": 6.221172765572345,
        "alt_km": 491.0191366983672,
        "timestamp": "2025-12-20T05:41:49.661534+00:00",
        "meta_object_name": "TIANMU-1 11",
        "meta_object_id": "2023-205A",
        "meta_epoch": "2025-12-19T23:11:47.195808",
        "meta_mean_motion": 15.24681545,
        "meta_eccentricity": 0.0007564,
        "meta_inclination": 97.3596,
        "meta_ra_of_asc_node": 13.463,
        "meta_arg_of_pericenter": 279.8747,
        "meta_mean_anomaly": 80.1636,
        "meta_ephemeris_type": 0,
        "meta_classification_type": "U",
        "meta_norad_cat_id": 58645,
        "meta_element_set_no": 999,
        "meta_rev_at_epoch": 11019,
        "meta_bstar": 0.00017259045,
        "meta_mean_motion_dot": 4.197e-05,
        "meta_mean_motion_ddot": 0,
        "tle_line1": "1 58645U 23205A   25353.96651847  .00004197  00000+0  17259-3 0  9991",
        "tle_line2": "2 58645  97.3596  13.4630 0007564 279.8747  80.1636 15.24681545110199"
      },
      "geometry": {
        "type": "Point",
        "coordinates": [
          6.221172765572345,
          45.31147211580051
        ]
      }
    },
    {
      "type": "Feature",
      "properties": {
        "norad_id": 58646,
        "name": "TIANMU-1 12",
        "group": "weather",
        "lat": -73.25559587111448,
        "lon": 168.0943595922938,
        "alt_km": 495.43066931322664,
        "timestamp": "2025-12-20T05:41:49.661544+00:00",
        "meta_object_name": "TIANMU-1 12",
        "meta_object_id": "2023-205B",
        "meta_epoch": "2025-12-19T23:51:23.071392",
        "meta_mean_motion": 15.24566782,
        "meta_eccentricity": 0.00057974,
        "meta_inclination": 97.3583,
        "meta_ra_of_asc_node": 13.293,
        "meta_arg_of_pericenter": 258.1967,
        "meta_mean_anomaly": 101.8621,
        "meta_ephemeris_type": 0,
        "meta_classification_type": "U",
        "meta_norad_cat_id": 58646,
        "meta_element_set_no": 999,
        "meta_rev_at_epoch": 11018,
        "meta_bstar": 0.00018594424,
        "meta_mean_motion_dot": 4.511e-05,
        "meta_mean_motion_ddot": 0,
        "tle_line1": "1 58646U 23205B   25353.99401703  .00004511  00000+0  18594-3 0  9992",
        "tle_line2": "2 58646  97.3583  13.2930 0005797 258.1967 101.8621 15.24566782110186"
      },
      "geometry": {
        "type": "Point",
        "coordinates": [
          168.0943595922938,
          -73.25559587111448
        ]
      }
    }
  ]
}